{
    "links": {
        "self": "http://www.neowsapp.com/rest/v1/neo/3748564?api_key=iIulBulltgU6a56xZRHN4H3l9WmuAYTsLGpBGhQ2"
    },
    "id": "3748564",
    "neo_reference_id": "3748564",
    "name": "(2016 GD1)",
    "designation": "2016 GD1",
    "nasa_jpl_url": "http://ssd.jpl.nasa.gov/sbdb.cgi?sstr=3748564",
    "absolute_magnitude_h": 22.9,
    "estimated_diameter": {
        "kilometers": {
            "estimated_diameter_min": 0.0699125232,
            "estimated_diameter_max": 0.1563291544
        },
        "meters": {
            "estimated_diameter_min": 69.9125232246,
            "estimated_diameter_max": 156.3291544087
        },
        "miles": {
            "estimated_diameter_min": 0.0434416145,
            "estimated_diameter_max": 0.097138403
        },
        "feet": {
            "estimated_diameter_min": 229.3718026961,
            "estimated_diameter_max": 512.8909429502
        }
    },
    "is_potentially_hazardous_asteroid": false,
    "close_approach_data": [
        {
            "close_approach_date": "2016-04-24",
            "close_approach_date_full": "2016-Apr-24 18:58",
            "epoch_date_close_approach": 1461524280000,
            "relative_velocity": {
                "kilometers_per_second": "3.4437266993",
                "kilometers_per_hour": "12397.4161176426",
                "miles_per_hour": "7703.2722537652"
            },
            "miss_distance": {
                "astronomical": "0.227446861",
                "lunar": "88.476828929",
                "kilometers": "34025565.94378607",
                "miles": "21142506.286424966"
            },
            "orbiting_body": "Earth"
        },
        {
            "close_approach_date": "2041-04-30",
            "close_approach_date_full": "2041-Apr-30 02:35",
            "epoch_date_close_approach": 2250902100000,
            "relative_velocity": {
                "kilometers_per_second": "3.5620337458",
                "kilometers_per_hour": "12823.3214848013",
                "miles_per_hour": "7967.9132859311"
            },
            "miss_distance": {
                "astronomical": "0.2331489027",
                "lunar": "90.6949231503",
                "kilometers": "34878579.236757249",
                "miles": "21672544.1684940762"
            },
            "orbiting_body": "Earth"
        }
    ],
    "orbital_data": {
        "orbit_id": "18",
        "orbit_determination_date": "2020-06-05 05:55:16",
        "first_observation_date": "2016-04-01",
        "last_observation_date": "2016-05-11",
        "data_arc_in_days": 40,
        "observations_used": 73,
        "orbit_uncertainty": "6",
        "minimum_orbit_intersection": ".226054",
        "jupiter_tisserand_invariant": "3.770",
        "epoch_osculation": "2459000.5",
        "eccentricity": ".3777782976282387",
        "semi_major_axis": "1.975361934806267",
        "inclination": "5.633560560229899",
        "ascending_node_longitude": "14.98867297654261",
        "orbital_period": "1014.071197902647",
        "perihelion_distance": "1.229113065875532",
        "perihelion_argument": "201.3775728572537",
        "aphelion_distance": "2.721610803737002",
        "perihelion_time": "2458520.850801867735",
        "mean_anomaly": "170.2777001109465",
        "mean_motion": ".3550046591842564",
        "equinox": "J2000",
        "orbit_class": {
            "orbit_class_type": "AMO",
            "orbit_class_description": "Near-Earth asteroid orbits similar to that of 1221 Amor",
            "orbit_class_range": "1.017 AU < q (perihelion) < 1.3 AU"
        }
    },
    "is_sentry_object": false
}